NORAD_CAT_ID,OBJECT_NAME,OBJECT_TYPE,EPOCH,MEAN_MOTION,ECCENTRICITY,INCLINATION,RA_OF_ASC_NODE,ARG_OF_PERICENTER,MEAN_ANOMALY,BSTAR,MEAN_MOTION_DOT,MEAN_MOTION_DDOT,TLE_LINE0,TLE_LINE1,TLE_LINE2,SEMIMAJOR_AXIS,PERIOD,APOGEE,PERIGEE,DECAYED
51108.0,STARLINK-3362,PAYLOAD,2023-01-07 11:54:15,15.08840352,0.000264,53.2154,83.969,30.9377,329.177,-1.5051e-05,-5.28e-06,0.0,0 STARLINK-3362,1 51108U 22005E   23007.49601450 -.00000528  00000-0 -15051-4 0  9998,2 51108  53.2154  83.9690 0002640  30.9377 329.1770 15.08840352 55288,6917.879,95.438,541.571,537.918,0.0
51108.0,STARLINK-3362,PAYLOAD,2023-01-07 21:26:35,15.08821767,0.0002677,53.216,82.1851,25.7193,334.3932,-0.00025187,-4.293e-05,0.0,0 STARLINK-3362,1 51108U 22005E   23007.89346711 -.00004293  00000-0 -25187-3 0  9991,2 51108  53.2160  82.1851 0002677  25.7193 334.3932 15.08821767 54245,6917.936,95.439,541.653,537.9490000000002,0.0
51108.0,STARLINK-3362,PAYLOAD,2023-01-08 00:37:22,15.08816957,0.0002369,53.2173,81.5913,23.9975,336.1127,-2.4812e-05,-6.83e-06,0.0,0 STARLINK-3362,1 51108U 22005E   23008.02595444 -.00000683  00000-0 -24812-4 0  9990,2 51108  53.2173  81.5913 0002369  23.9975 336.1127 15.08816957 55362,6917.951,95.439,541.455,538.177,0.0
51108.0,STARLINK-3362,PAYLOAD,2023-01-08 11:45:04,15.08812785,0.0002562,53.218,79.5103,15.5583,344.5488,0.00022607,3.309e-05,0.0,0 STARLINK-3362,1 51108U 22005E   23008.48963667  .00003309  00000-0  22607-3 0  9991,2 51108  53.2180  79.5103 0002562  15.5583 344.5488 15.08812785 55431,6917.964,95.439,541.601,538.056,0.0
51108.0,STARLINK-3362,PAYLOAD,2023-01-08 13:20:27,15.08826145,0.0002566999999999,53.2165,79.2117,26.7266,333.3858,0.00021362,3.112e-05,0.0,0 STARLINK-3362,1 51108U 22005E   23008.55586917  .00003112  00000-0  21362-3 0  9997,2 51108  53.2165  79.2117 0002567  26.7266 333.3858 15.08826145 54344,6917.923000000002,95.438,541.564,538.012,0.0
51108.0,STARLINK-3362,PAYLOAD,2023-01-08 21:17:22,15.08835966,0.0002484,53.2163,77.7248,22.5895,337.5206,0.00029373,4.389e-05,0.0,0 STARLINK-3362,1 51108U 22005E   23008.88706519  .00004389  00000-0  29373-3 0  9992,2 51108  53.2163  77.7248 0002484  22.5895 337.5206 15.08835966 54399,6917.893,95.438,541.476,538.039,0.0
51108.0,STARLINK-3362,PAYLOAD,2023-01-09 05:14:18,15.08845751,0.0002822,53.2164,76.2381,24.7789,335.3338,0.0001025,1.343e-05,0.0,0 STARLINK-3362,1 51108U 22005E   23009.21826528  .00001343  00000-0  10250-3 0  9994,2 51108  53.2164  76.2381 0002822  24.7789 335.3338 15.08845751 55547,6917.863,95.437,541.68,537.776,0.0
51108.0,STARLINK-3362,PAYLOAD,2023-01-09 21:08:09,15.08844504,0.0002872,53.2156,73.2648,26.3738,333.74,0.00031269,4.692e-05,0.0,0 STARLINK-3362,1 51108U 22005E   23009.88066631  .00004692  00000-0  31269-3 0  9991,2 51108  53.2156  73.2648 0002872  26.3738 333.7400 15.08844504 54544,6917.866999999998,95.437,541.7180000000002,537.745,0.0
51108.0,STARLINK-3362,PAYLOAD,2023-01-10 05:05:05,15.088429500000002,0.0002801,53.2163,71.7794,26.3275,333.7859,0.00018007,2.579e-05,0.0,0 STARLINK-3362,1 51108U 22005E   23010.21186668  .00002579  00000-0  18007-3 0  9990,2 51108  53.2163  71.7794 0002801  26.3275 333.7859 15.08842950 55693,6917.871,95.437,541.674,537.799,0.0
51108.0,STARLINK-3362,PAYLOAD,2023-01-10 11:26:38,15.08833766,0.0002816,53.217,70.5883,24.0396,336.0727,9.7666e-05,1.266e-05,0.0,0 STARLINK-3362,1 51108U 22005E   23010.47683520  .00001266  00000-0  97666-4 0  9998,2 51108  53.2170  70.5883 0002816  24.0396 336.0727 15.08833766 55732,6917.899,95.438,541.7130000000002,537.816,0.0
51108.0,STARLINK-3362,PAYLOAD,2023-01-11 09:42:02,15.08836377,0.000328,53.2171,66.4251,23.3278,336.7862,-3.7498e-05,-8.86e-06,0.0,0 STARLINK-3362,1 51108U 22005E   23011.40419943 -.00000886  00000-0 -37498-4 0  9994,2 51108  53.2171  66.4251 0003280  23.3278 336.7862 15.08836377 55876,6917.891,95.438,542.026,537.487,0.0
51108.0,STARLINK-3362,PAYLOAD,2023-01-11 12:52:48,15.0883773,0.0003097,53.2164,65.8307,26.0507,334.064,-1.869e-05,-5.86e-06,0.0,0 STARLINK-3362,1 51108U 22005E   23011.53667801 -.00000586  00000-0 -18690-4 0  9996,2 51108  53.2164  65.8307 0003097  26.0507 334.0640 15.08837730 54793,6917.887,95.438,541.895,537.61,0.0
51108.0,STARLINK-3362,PAYLOAD,2023-01-11 20:49:44,15.08845063,0.000277,53.2156,64.3433,28.5826,331.5318,6.183800000000001e-07,-2.79e-06,0.0,0 STARLINK-3362,1 51108U 22005E   23011.86787263 -.00000279  00000-0  61838-6 0  9999,2 51108  53.2156  64.3433 0002770  28.5826 331.5318 15.08845063 54844,6917.865,95.437,541.646,537.814,0.0
51108.0,STARLINK-3362,PAYLOAD,2023-01-12 03:11:17,15.08833381,0.0002665,53.2167,63.1535,30.1117,330.0028,6.8057e-05,7.95e-06,0.0,0 STARLINK-3362,1 51108U 22005E   23012.13283892  .00000795  00000-0  68057-4 0  9999,2 51108  53.2167  63.1535 0002665  30.1117 330.0028 15.08833381 55989,6917.901,95.438,541.609,537.922,0.0
51108.0,STARLINK-3362,PAYLOAD,2023-01-12 09:32:49,15.08833481,0.0002617,53.2161,61.9633,30.0184,330.0958,6.3668e-05,7.25e-06,0.0,0 STARLINK-3362,1 51108U 22005E   23012.39779961  .00000725  00000-0  63668-4 0  9990,2 51108  53.2161  61.9633 0002617  30.0184 330.0958 15.08833481 56027,6917.9,95.438,541.576,537.955,0.0
51108.0,STARLINK-3362,PAYLOAD,2023-01-12 20:40:31,15.08839249,0.0002675,53.216,59.8842,30.2258,329.8888,0.00015561,2.189e-05,0.0,0 STARLINK-3362,1 51108U 22005E   23012.86147532  .00002189  00000-0  15561-3 0  9999,2 51108  53.2160  59.8842 0002675  30.2258 329.8888 15.08839249 56095,6917.883000000002,95.438,541.5980000000002,537.8969999999998,0.0
51108.0,STARLINK-3362,PAYLOAD,2023-01-12 23:51:18,15.08840544,0.000234,53.2164,59.2869,35.9726,324.1424,4.0715e-05,3.6000000000000007e-06,0.0,0 STARLINK-3362,1 51108U 22005E   23012.99395924  .00000360  00000-0  40715-4 0  9992,2 51108  53.2164  59.2869 0002340  35.9726 324.1424 15.08840544 56110,6917.879,95.438,541.363,538.125,0.0
51108.0,STARLINK-3362,PAYLOAD,2023-01-13 09:23:36,15.08841623,0.0002395,53.2164,57.5029,36.6802,323.4353,3.5501e-05,2.77e-06,0.0,0 STARLINK-3362,1 51108U 22005E   23013.39139874  .00000277  00000-0  35501-4 0  9991,2 51108  53.2164  57.5029 0002395  36.6802 323.4353 15.08841623 56170,6917.875,95.437,541.3969999999999,538.0840000000001,0.0
51108.0,STARLINK-3362,PAYLOAD,2023-01-14 02:52:51,15.08834808,0.0002525999999999,53.2163,54.2336,36.6903,323.4262,7.362e-05,8.83e-06,0.0,0 STARLINK-3362,1 51108U 22005E   23014.12004370  .00000883  00000-0  73620-4 0  9992,2 51108  53.2163  54.2336 0002526  36.6903 323.4262 15.08834808 56280,6917.896,95.438,541.509,538.014,0.0
51108.0,STARLINK-3362,PAYLOAD,2023-01-14 09:14:23,15.0884312,0.0002448,53.2165,53.0439,40.069,320.0482,0.0001188,1.603e-05,0.0,0 STARLINK-3362,1 51108U 22005E   23014.38499791  .00001603  00000-0  11880-3 0  9995,2 51108  53.2165  53.0439 0002448  40.0690 320.0482 15.08843120 56327,6917.871,95.437,541.429,538.0419999999999,0.0
51108.0,STARLINK-3362,PAYLOAD,2023-01-15 02:43:38,15.08834941,0.000239,53.216,49.7733,44.802,315.3165,5.8607e-05,6.44e-06,0.0,0 STARLINK-3362,1 51108U 22005E   23015.11364488  .00000644  00000-0  58607-4 0  9994,2 51108  53.2160  49.7733 0002390  44.8020 315.3165 15.08834941 56434,6917.896,95.438,541.414,538.107,0.0
51108.0,STARLINK-3362,PAYLOAD,2023-01-15 09:05:10,15.08850616,0.0002179,53.2162,48.5822,44.1061,316.0105,0.00018729,2.695e-05,0.0,0 STARLINK-3362,1 51108U 22005E   23015.37859154  .00002695  00000-0  18729-3 0  9999,2 51108  53.2162  48.5822 0002179  44.1061 316.0105 15.08850616 56478,6917.848000000001,95.437,541.22,538.206,0.0
51108.0,STARLINK-3362,PAYLOAD,2023-01-15 18:37:28,15.08853323,0.0002121999999999,53.2161,46.7966,33.5984,326.5142,0.00010033,1.309e-05,0.0,0 STARLINK-3362,1 51108U 22005E   23015.77602903  .00001309  00000-0  10033-3 0  9992,2 51108  53.2161  46.7966 0002122  33.5984 326.5142 15.08853323 56532,6917.84,95.437,541.173,538.237,0.0
51108.0,STARLINK-3362,PAYLOAD,2023-01-16 10:31:20,15.08856167,0.0002119,53.2168,43.8244,54.7284,305.3907,0.00014548,2.029e-05,0.0,0 STARLINK-3362,1 51108U 22005E   23016.43842602  .00002029  00000-0  14548-3 0  9993,2 51108  53.2168  43.8244 0002119  54.7284 305.3907 15.08856167 56634,6917.831,95.437,541.1619999999999,538.23,0.0
51108.0,STARLINK-3362,PAYLOAD,2023-01-16 18:28:18,15.08828376,0.0002581,53.2171,42.3354,58.2748,301.8496,-0.0001592,-2.821e-05,0.0,0 STARLINK-3362,1 51108U 22005E   23016.76965326 -.00002821  00000-0 -15920-3 0  9995,2 51108  53.2171  42.3354 0002581  58.2748 301.8496 15.08828376 56681,6917.916,95.438,541.566,537.995,0.0
51108.0,STARLINK-3362,PAYLOAD,2023-01-17 02:25:15,15.08813942,0.0001797,53.2163,40.8515,64.4473,295.6705,-0.00029498,-4.976e-05,0.0,0 STARLINK-3362,1 51108U 22005E   23017.10087063 -.00004976  00000-0 -29498-3 0  9995,2 51108  53.2163  40.8515 0001797  64.4473 295.6705 15.08813942 56738,6917.96,95.439,541.068,538.582,0.0
51108.0,STARLINK-3362,PAYLOAD,2023-01-17 10:22:10,15.08820902,0.0001899,53.219,39.3644,64.9215,295.1974,-0.00021964,-3.78e-05,0.0,0 STARLINK-3362,1 51108U 22005E   23017.43206761 -.00003780  00000-0 -21964-3 0  9991,2 51108  53.2190  39.3644 0001899  64.9215 295.1974 15.08820902 56788,6917.939,95.439,541.117,538.49,0.0
51108.0,STARLINK-3362,PAYLOAD,2023-01-17 18:19:05,15.08829715,0.0002195,53.2184,37.8777,71.1896,288.9334,1.8514e-05,6e-08,0.0,0 STARLINK-3362,1 51108U 22005E   23017.76325965  .00000006  00000-0  18514-4 0  9999,2 51108  53.2184  37.8777 0002195  71.1896 288.9334 15.08829715 56833,6917.911999999999,95.438,541.295,538.258,0.0
51108.0,STARLINK-3362,PAYLOAD,2023-01-18 07:02:09,15.08854538,0.000181,53.2172,35.4978,74.3249,285.7943,8.9269e-05,1.133e-05,0.0,0 STARLINK-3362,1 51108U 22005E   23018.29316388  .00001133  00000-0  89269-4 0  9994,2 51108  53.2172  35.4978 0001810  74.3249 285.7943 15.08854538 56918,6917.835999999999,95.437,540.953,538.4490000000001,0.0
